#dP2024  6 24 18  0  0.00000000      96 __u+U IGS20 EXT  IAC
## 2320 151200.00000000   900.00000000 60485 0.7500000000000
+   54   G02G03G04G05G06G07G08G09G10G11G12G13G14G15G16G17G18
+        G19G20G21G22G23G24G25G26G27G28G29G30G31G32R01R02R03
+        R04R05R07R08R09R11R12R13R14R15R16R17R18R19R20R21R22
+        R24R25R26  0  0  0  0  0  0  0  0  0  0  0  0  0  0
+          0  0  0  0  0  0  0  0  0  0  0  0  0  0  0  0  0
++         9  8  8 10  9  9  8  8  8  9  9  8  8  7  8  8  6
++         9  9 10  7  9  9  9  7  6  7  8  7  9  8  9  8 10
++         7  7  9  9  9  8  8 10  8  9  7  6  8  9 10  8  8
++         9  8  9  0  0  0  0  0  0  0  0  0  0  0  0  0  0
++         0  0  0  0  0  0  0  0  0  0  0  0  0  0  0  0  0
%c M  cc GPS ccc cccc cccc cccc cccc ccccc ccccc ccccc ccccc
%c cc cc ccc ccc cccc cccc cccc cccc ccccc ccccc ccccc ccccc
%f  0.0000000  0.000000000  0.00000000000  0.000000000000000
%f  0.0000000  0.000000000  0.00000000000  0.000000000000000
%i    0    0    0    0      0      0      0      0         0
%i    0    0    0    0      0      0      0      0         0
/* IAC                                ULTRA-RAPID PREDICTION
/* S/V CLOCKS ARE ALIGNED TO GNSS TIME                      
/* G:C1WC2W R:C1PC2P E:C1XC5X C:C2IC6I J:C1CC2S             
/* PCV:IGS20_2317 OL/AL:FES2004  NONE     YN ORB:CoN CLK:CoN
*  2024 06 25  7  0  0.00000000
PG02   4263.083910 -16838.339999 -19528.995388   -411.278739
PG03  -8665.324440 -20314.053239 -15004.626036    429.529839
PG04    285.727473 -25504.196057   7171.872982    390.470377
PG05  -6407.053183  13685.810603  21652.887577   -177.523747
PG06 -25439.000050   4464.991308  -6375.694875    199.068777
PG07 -15622.282926  -9475.521358  19948.790682    -84.244328
PG08   6279.904575 -25255.025096   3886.354357    245.838572
PG09  -8989.625123 -18609.818590  16569.345051    248.048555
PG10  22307.948703   8474.917152 -11793.496947    -50.603926
PG11 -22457.063002  12212.352061   7125.101392   -692.553112
PG12   4945.760921  20562.569895 -16377.151407   -516.981837
PG13 -13627.274944  20331.792666   9799.778038    660.290017
PG14 -22476.318759 -11499.971200  -8555.051483    433.645206
PG15  -2898.016360  26025.807494   3271.486742    173.954370
PG16  11075.115874 -10190.176375  21556.109815   -254.699286
PG17 -14115.255621  -4723.229760 -21575.760542    689.177588
PG18  15942.240618   8524.071178  19539.923155   -629.207871
PG19 -16114.295594   4684.959310 -20660.792624    501.312488
PG20 -15215.254518   7888.759522  20313.387551    373.460023
PG21   9284.712352 -17407.705127 -16828.362606    113.196854
PG22 -20571.472959  -5504.931327 -15268.815375    -31.680319
PG23  21259.213983  16087.268517   -814.240131    258.576266
PG24  -5488.094982  18143.142209 -18869.254157   -479.851423
PG25  14865.047063  20351.240551  -9128.594326    497.795104
PG26  20713.368620   -554.027459  16662.313264    131.205749
PG27  12574.380506 -18708.937522  13412.456615    -29.346299
PG28  24840.200046  -3427.481895  -8765.124262   -303.913414
PG29   5052.534184  21353.872375  14824.185733   -592.646228
PG30 -23375.050981  -1590.116473  12910.063679   -368.604149
PG31  24746.737057  -9974.917905   2019.971617   -227.193151
PG32  14937.421347   2081.703966 -21647.503463   -615.038006
PR01 -12118.733618 -10228.441143  19986.278218     89.433704
PR02  -9095.933684   8035.138972  22490.012979    -23.429042
PR03  -1269.348377  22413.954900  12211.957664    102.708584
PR04   6755.418099  24198.135711  -4422.066964    242.659924
PR05  11292.814768  13140.343428 -18718.382915    133.604149
PR07    872.274170 -22727.789927 -11458.642397     85.297581
PR08  -7146.733222 -24004.853552   4808.450572     -5.323846
PR09  20413.013934  -1777.974458  15157.955270    194.124726
PR11 -11516.550269 -13018.903213  18691.768274     20.286788
PR12 -23906.754082  -8712.747850   1753.915787     41.707130
PR13 -21876.945841   -264.646205 -13122.116525    -48.672297
PR14  -5335.594526   9964.026984 -22850.599441     26.621648
PR15  12933.070521  13159.873060 -17583.365266     78.494682
PR16  23895.052010   8656.629952  -1912.942363     26.794287
PR17 -13699.392451  18570.559494  10821.313444     98.904075
PR18   -442.618904  13324.385958  21765.542321    148.713889
PR19  12046.222888   3092.318125  22265.709438   -281.562207
PR20  20941.106990 -12337.756816   7683.589524   -115.075813
PR21  14143.536105 -18458.286811 -10525.230166   -112.169771
PR22   -573.387385 -12925.704393 -21959.301483     98.180082
PR24 -20461.538017  13469.486523  -7064.137413    -61.239507
PR25  14162.312786 -18150.735215 -11008.388417    -83.396201
PR26  -6712.708372 -24390.589114   3395.479559     -5.554073
*  2024 06 25  7 15  0.00000000
PG02   6337.187304 -17731.175137 -18133.520762   -411.272277
PG03  -7181.682825 -19295.113092 -17009.375915    429.545676
PG04    640.573786 -26114.340739   4402.287484    390.477606
PG05  -8476.868639  12241.848463  21811.521041   -177.524914
PG06 -24667.419433   3999.518885  -9098.161964    199.049294
PG07 -13582.948233 -10378.190264  20952.149147    -84.236025
PG08   6516.070041 -24602.539480   6664.248698    245.854402
PG09  -8599.030814 -20375.362157  14586.559334    248.061845
PG10  23177.311483   9343.042842  -9259.494886    -50.611784
PG11 -23153.304182  12206.169798   4356.844403   -692.559958
PG12   3417.849785  19384.362257 -18135.539330   -516.984675
PG13 -13472.948333  19024.481618  12291.727581    660.292342
PG14 -22948.164220 -12231.495584  -5905.982809    433.653382
PG15  -3245.018221  25438.067565   6019.873833    173.958188
PG16  12916.457855  -8466.427054  21319.292494   -254.689629
PG17 -13575.473606  -7203.559220 -21226.115544    689.171916
PG18  13831.034845   9415.749576  20687.498213   -629.211977
PG19 -15616.150371   2355.857492 -21467.160471    501.317379
PG20 -17150.293260   6732.175371  19137.485451    373.459668
PG21  11104.857194 -18075.833056 -14868.991682    113.194616
PG22 -21660.384585  -6827.892704 -13110.047068    -31.684614
PG23  21094.016987  16195.816339   2065.599463    258.584473
PG24  -7364.877016  18909.320477 -17347.126131   -479.853383
PG25  13821.425173  19848.336955 -11605.919998    497.795588
PG26  22117.445312    623.396541  14799.919287    131.199969
PG27  12567.301616 -16977.326805  15547.879729    -29.347308
PG28  23883.045988  -2756.544818 -11298.659341   -303.928262
PG29   4535.673264  22856.378110  12578.552403   -592.644592
PG30 -22002.693198  -2390.771239  15024.265884   -368.598445
PG31  24920.080700  -9778.169171   -797.895569   -227.192882
PG32  14607.803465   4574.041634 -21507.904092   -615.036686
PR01 -12810.041542 -12481.525405  18196.253440     89.434637
PR02  -9684.828582   5298.676023  23044.322775    -23.429261
PR03  -1520.374781  20768.810103  14818.522563    102.709106
PR04   7008.702806  24501.522344  -1219.480820    242.661411
PR05  11885.925606  15246.493122 -16641.982533    133.604536
PR07   1109.489939 -21151.631548 -14137.477332     85.298239
PR08  -7392.968261 -24346.593202   1617.878342     -5.324222
PR09  22086.612214  -1409.163501  12629.382894    194.126504
PR11  -9222.433073 -12285.031659  20384.009248     20.285572
PR12 -23551.136742  -8473.430778   4925.164709     41.707440
PR13 -23301.633208   -546.724768 -10370.943570    -48.672691
PR14  -8028.376057   9221.912249 -22372.033188     26.621546
PR15  10754.893872  12445.931169 -19467.601235     78.494296
PR16  23518.031281   8394.273164  -5092.626649     26.794517
PR17 -14426.016414  19484.489305   7861.881388     98.907021
PR18  -2306.539836  15143.313380  20419.770445    148.715497
PR19   9889.271066   4876.389652  22996.049389   -281.563523
PR20  19947.542872 -11753.559772  10667.801540   -115.076512
PR21  14837.322457 -19350.898851  -7545.792566   -112.172724
PR22   1387.648368 -14697.764224 -20777.052051     98.175336
PR24 -19592.177810  12849.925171 -10049.555621    -61.240975
PR25  14965.197131 -19023.284828  -8087.655459    -83.424059
PR26  -6925.933100 -24563.419529    186.479405     -5.553341
EOF
